IRIDIUM 171             
1 43929U 19002H   24280.87271580  .00000384  00000+0  13007-3 0  9991
2 43929  86.3936 252.1613 0002623  86.3825 273.7670 14.34217699300336
IRIDIUM 170             
1 43930U 19002J   24280.79497885  .00005519  00000+0  87112-3 0  9995
2 43930  86.6064 251.9928 0002618  79.7549 280.3963 14.72237736308278
IRIDIUM 167             
1 43931U 19002K   24280.65706492  .00001923  00000+0  67935-3 0  9994
2 43931  86.3932 252.0300 0002406  87.9310 272.2161 14.34225161300301
IRIDIUM 177             
1 56727U 23068T   24280.90318432  .00002985  00000+0  38900-3 0  9998
2 56727  86.1927 262.2933 0002491 101.2671 258.8830 14.80265471 74905
IRIDIUM 174             
1 56728U 23068U   24280.89800193  .00002988  00000+0  38949-3 0  9993
2 56728  86.1933 262.4086 0002628  97.6634 262.4886 14.80249270 74904
IRIDIUM 178             
1 56729U 23068V   24280.75702602  .00001702  00000+0  22053-3 0  9997
2 56729  86.5717 285.2422 0002450  91.6844 268.4658 14.80237763 74880
